IRIDIUM 57 [-]          
1 25273U 98019B   23263.88460167  .00000600  00000+0  20433-3 0  9992
2 25273  86.3951  51.2705 0002086  91.9849 268.1586 14.34900516333658
IRIDIUM 63 [-]          
1 25286U 98021B   23263.79734941  .00000607  00000+0  20487-3 0  9999
2 25286  86.4042 348.2748 0002201  98.1006 262.0440 14.35410522332669
IRIDIUM 69 [-]          
1 25319U 98026A   23263.88822331  .00000922  00000+0  28939-3 0  9992
2 25319  86.4047   3.3912 0001620  23.0382 337.0890 14.39566711331860
IRIDIUM 71 [-]          
1 25320U 98026B   23264.36613255  .00000796  00000+0  24700-3 0  9992
2 25320  86.4040 358.0313 0003447  56.9209 303.2320 14.39908652332455
IRIDIUM 73 [-]          
1 25344U 98032C   23264.11215984  .00000690  00000+0  17307-3 0  9993
2 25344  86.4420 316.0289 0002024  75.6260 284.5169 14.50024864338785
IRIDIUM 82 [-]          
1 25467U 98051A   23263.92928901  .00016779  00000+0  99701-3 0  9991
2 25467  86.3939  52.7412 0150156 127.3409 234.1615 15.02074345327813
IRIDIUM 2 [-]           
1 25527U 98066A   23263.70980287  .00033794  00000+0  84732-3 0  9999
2 25527  85.5171 113.5038 0003545 304.3768  55.7149 15.39883915365848
